FENGYUN 1C DEB          
1 30597U 99025AMC 17345.24244870  .00001092  00000-0  40070-3 0  9996
2 30597  98.9289  94.3469 0131956 180.6284 179.4753 14.30182435564541
